SOYUZ-MS 28             
1 66664U 25275A   26191.66969573  .00005249  00000+0  10345-3 0  9994
2 66664  51.6301 183.8741 0006684 279.9238  80.0995 15.48970863645908
CREW DRAGON 12          
1 67796U 26031A   26191.66969573  .00005249  00000+0  10345-3 0  9992
2 67796  51.6301 183.8741 0006684 279.9238  80.0995 15.48970863628175
SHENZHOU-23 (SZ-23)     
1 69180U 26113A   26191.59979599  .00001397  00000+0  22374-4 0  9999
2 69180  41.4687 179.6858 0002649 286.3424  73.7123 15.58017112295921
